EOSSAT-1                
1 55053U 23001AW  26068.73619225  .00007695  00000+0  24844-3 0  9992
2 55053  97.3357 130.2294 0011263 110.3168 249.9285 15.32339828176689
STARLINK-35556          
1 66238U 25245E   26068.87839792  .00025426  00000+0  86742-3 0  9996
2 66238  53.1570 283.1486 0000823  86.5771 273.5323 15.30208155 21285
